start=new Date('2023-02-03T00:00:00.000Z').valueOf();
sats=[{"PERIAPSIS":"546.415","REV_AT_EPOCH":"17848","ECCENTRICITY":"0.00011610","MEAN_ELEMENT_THEORY":"SGP4","OBJECT_TYPE":"PAYLOAD","MEAN_MOTION_DOT":"0.00000409","MEAN_ANOMALY":"267.6796","TLE_LINE1":"1 44723U 19074L   23033.89932599  .00000409  00000-0  46367-4 0  9999","DECAY_DATE":null,"OBJECT_NAME":"STARLINK-1017","CLASSIFICATION_TYPE":"U","COUNTRY_CODE":"US","REF_FRAME":"TEME","MEAN_MOTION_DDOT":"0.0000000000000","SITE":"AFETR","FILE":"3768753","INCLINATION":"53.0525","TIME_SYSTEM":"UTC","CENTER_NAME":"EARTH","RCS_SIZE":"LARGE","APOAPSIS":"548.023","MEAN_MOTION":"15.06398245","EPHEMERIS_TYPE":"0","NORAD_CAT_ID":"44723","BSTAR":"0.00004636700000","GP_ID":"224252082","PERIOD":"95.592","ELEMENT_SET_NO":"999","LAUNCH_DATE":"2019-11-11","RA_OF_ASC_NODE":"222.9298","TLE_LINE2":"2 44723  53.0525 222.9298 0001161  92.4325 267.6796 15.06398245178484","SEMIMAJOR_AXIS":"6925.354","EPOCH":"2023-02-02T21:35:01.765536","ARG_OF_PERICENTER":"92.4325","OBJECT_ID":"2019-074L"},{"REF_FRAME":"TEME","MEAN_MOTION_DDOT":"0.0000000000000","COUNTRY_CODE":"US","FILE":"3768709","SITE":"AFETR","INCLINATION":"53.0516","RCS_SIZE":"LARGE","CENTER_NAME":"EARTH","TIME_SYSTEM":"UTC","REV_AT_EPOCH":"17848","ECCENTRICITY":"0.00012410","PERIAPSIS":"546.352","MEAN_ELEMENT_THEORY":"SGP4","MEAN_MOTION_DOT":"0.00001016","OBJECT_TYPE":"PAYLOAD","CLASSIFICATION_TYPE":"U","OBJECT_NAME":"STARLINK-1019","TLE_LINE1":"1 44724U 19074M   23033.92881430  .00001016  00000-0  87058-4 0  9998","MEAN_ANOMALY":"272.3537","DECAY_DATE":null,"LAUNCH_DATE":"2019-11-11","TLE_LINE2":"2 44724  53.0516 222.7996 0001241  87.7594 272.3537 15.06400826178487","SEMIMAJOR_AXIS":"6925.346","RA_OF_ASC_NODE":"222.7996","ARG_OF_PERICENTER":"87.7594","EPOCH":"2023-02-02T22:17:29.555520","OBJECT_ID":"2019-074M","NORAD_CAT_ID":"44724","APOAPSIS":"548.070","MEAN_MOTION":"15.06400826","EPHEMERIS_TYPE":"0","GP_ID":"224251534","BSTAR":"0.00008705800000","PERIOD":"95.592","ELEMENT_SET_NO":"999"},{"MEAN_ELEMENT_THEORY":"SGP4","PERIAPSIS":"546.516","ECCENTRICITY":"0.00010290","REV_AT_EPOCH":"17813","CLASSIFICATION_TYPE":"U","TLE_LINE1":"1 44725U 19074N   23033.46991642  .00000309  00000-0  39624-4 0  9995","DECAY_DATE":null,"MEAN_ANOMALY":"273.0415","OBJECT_NAME":"STARLINK-1020","OBJECT_TYPE":"PAYLOAD","MEAN_MOTION_DOT":"0.00000309","FILE":"3768707","SITE":"AFETR","COUNTRY_CODE":"US","MEAN_MOTION_DDOT":"0.0000000000000","REF_FRAME":"TEME","RCS_SIZE":"LARGE","CENTER_NAME":"EARTH","TIME_SYSTEM":"UTC","INCLINATION":"53.0497","GP_ID":"224251501","BSTAR":"0.00003962400000","NORAD_CAT_ID":"44725","APOAPSIS":"547.941","MEAN_MOTION":"15.06395187","EPHEMERIS_TYPE":"0","ELEMENT_SET_NO":"999","PERIOD":"95.592","TLE_LINE2":"2 44725  53.0497 244.8666 0001029  87.0692 273.0415 15.06395187178139","SEMIMAJOR_AXIS":"6925.363","RA_OF_ASC_NODE":"244.8666","LAUNCH_DATE":"2019-11-11","OBJECT_ID":"2019-074N","ARG_OF_PERICENTER":"87.0692","EPOCH":"2023-02-02T11:16:40.778688"},{"MEAN_MOTION_DOT":"0.00000521","OBJECT_TYPE":"PAYLOAD","OBJECT_NAME":"STARLINK-1021","TLE_LINE1":"1 44726U 19074P   23033.52704799  .00000521  00000-0  53842-4 0  9992","DECAY_DATE":null,"MEAN_ANOMALY":"277.3977","CLASSIFICATION_TYPE":"U","REV_AT_EPOCH":"17825","ECCENTRICITY":"0.00011590","PERIAPSIS":"546.415","MEAN_ELEMENT_THEORY":"SGP4","INCLINATION":"53.0545","TIME_SYSTEM":"UTC","CENTER_NAME":"EARTH","RCS_SIZE":"LARGE","REF_FRAME":"TEME","MEAN_MOTION_DDOT":"0.0000000000000","COUNTRY_CODE":"US","SITE":"AFETR","FILE":"3768366","ELEMENT_SET_NO":"999","PERIOD":"95.592","MEAN_MOTION":"15.06398612","APOAPSIS":"548.020","EPHEMERIS_TYPE":"0","NORAD_CAT_ID":"44726","BSTAR":"0.00005384200000","GP_ID":"224237085","EPOCH":"2023-02-02T12:38:56.946336","ARG_OF_PERICENTER":"82.7144","OBJECT_ID":"2019-074P","LAUNCH_DATE":"2019-11-11","RA_OF_ASC_NODE":"224.5983","TLE_LINE2":"2 44726  53.0545 224.5983 0001159  82.7144 277.3977 15.06398612178258","SEMIMAJOR_AXIS":"6925.353"},{"INCLINATION":"53.0512","CENTER_NAME":"EARTH","TIME_SYSTEM":"UTC","RCS_SIZE":"LARGE","COUNTRY_CODE":"US","MEAN_MOTION_DDOT":"0.0000000000000","REF_FRAME":"TEME","SITE":"AFETR","FILE":"3768366","OBJECT_TYPE":"PAYLOAD","MEAN_MOTION_DOT":"-0.00001427","DECAY_DATE":null,"TLE_LINE1":"1 44727U 19074Q   23033.03218700 -.00001427  00000-0 -76937-4 0  9999","MEAN_ANOMALY":"265.9996","OBJECT_NAME":"STARLINK-1022","CLASSIFICATION_TYPE":"U","PERIAPSIS":"546.183","REV_AT_EPOCH":"17763","ECCENTRICITY":"0.00015130","MEAN_ELEMENT_THEORY":"SGP4","EPOCH":"2023-02-02T00:46:20.956800","ARG_OF_PERICENTER":"94.1166","OBJECT_ID":"2019-074Q","LAUNCH_DATE":"2019-11-11","RA_OF_ASC_NODE":"266.8285","SEMIMAJOR_AXIS":"6925.366","TLE_LINE2":"2 44727  53.0512 266.8285 0001513  94.1166 265.9996 15.06394443177635","ELEMENT_SET_NO":"999","PERIOD":"95.592","MEAN_MOTION":"15.06394443","APOAPSIS":"548.278","EPHEMERIS_TYPE":"0","NORAD_CAT_ID":"44727","BSTAR":"-0.00007693700000","GP_ID":"224237831"},{"PERIOD":"94.370","ELEMENT_SET_NO":"999","NORAD_CAT_ID":"44729","APOAPSIS":"489.151","EPHEMERIS_TYPE":"0","MEAN_MOTION":"15.25901414","GP_ID":"224251559","BSTAR":"0.00057982000000","ARG_OF_PERICENTER":"142.2220","EPOCH":"2023-02-02T12:50:58.353504","OBJECT_ID":"2019-074S","LAUNCH_DATE":"2019-11-11","TLE_LINE2":"2 44729  53.0162 213.6783 0001557 142.2220 217.8887 15.25901414178533","SEMIMAJOR_AXIS":"6866.217","RA_OF_ASC_NODE":"213.6783","MEAN_MOTION_DOT":"0.00014748","OBJECT_TYPE":"PAYLOAD","CLASSIFICATION_TYPE":"U","OBJECT_NAME":"STARLINK-1024","MEAN_ANOMALY":"217.8887","TLE_LINE1":"1 44729U 19074S   23033.53539761  .00014748  00000-0  57982-3 0  9995","DECAY_DATE":null,"ECCENTRICITY":"0.00015570","REV_AT_EPOCH":"17853","PERIAPSIS":"487.013","MEAN_ELEMENT_THEORY":"SGP4","INCLINATION":"53.0162","RCS_SIZE":"LARGE","CENTER_NAME":"EARTH","TIME_SYSTEM":"UTC","REF_FRAME":"TEME","MEAN_MOTION_DDOT":"0.0000000000000","COUNTRY_CODE":"US","FILE":"3768713","SITE":"AFETR"},{"MEAN_MOTION_DOT":"0.00000569","OBJECT_TYPE":"PAYLOAD","OBJECT_NAME":"STARLINK-1026","DECAY_DATE":null,"TLE_LINE1":"1 44731U 19074U   23033.47175711  .00000569  00000-0  57069-4 0  9995","MEAN_ANOMALY":"265.8840","CLASSIFICATION_TYPE":"U","ECCENTRICITY":"0.00012580","REV_AT_EPOCH":"17841","PERIAPSIS":"546.345","MEAN_ELEMENT_THEORY":"SGP4","INCLINATION":"53.0521","TIME_SYSTEM":"UTC","CENTER_NAME":"EARTH","RCS_SIZE":"LARGE","REF_FRAME":"TEME","MEAN_MOTION_DDOT":"0.0000000000000","COUNTRY_CODE":"US","SITE":"AFETR","FILE":"3768711","PERIOD":"95.592","ELEMENT_SET_NO":"999","EPHEMERIS_TYPE":"0","APOAPSIS":"548.088","MEAN_MOTION":"15.06398992","NORAD_CAT_ID":"44731","BSTAR":"0.00005706900000","GP_ID":"224251567","EPOCH":"2023-02-02T11:19:19.814304","ARG_OF_PERICENTER":"94.2293","OBJECT_ID":"2019-074U","LAUNCH_DATE":"2019-11-11","RA_OF_ASC_NODE":"224.8548","TLE_LINE2":"2 44731  53.0521 224.8548 0001258  94.2293 265.8840 15.06398992178411","SEMIMAJOR_AXIS":"6925.352"},{"BSTAR":"0.00004334600000","GP_ID":"224251765","MEAN_MOTION":"15.06403854","APOAPSIS":"547.973","EPHEMERIS_TYPE":"0","NORAD_CAT_ID":"44732","PERIOD":"95.592","ELEMENT_SET_NO":"999","RA_OF_ASC_NODE":"244.0222","SEMIMAJOR_AXIS":"6925.337","TLE_LINE2":"2 44732  53.0496 244.0222 0001114  98.7469 261.3646 15.06403854178162","LAUNCH_DATE":"2019-11-11","OBJECT_ID":"2019-074V","EPOCH":"2023-02-02T15:47:22.625664","ARG_OF_PERICENTER":"98.7469","MEAN_ELEMENT_THEORY":"SGP4","REV_AT_EPOCH":"17816","ECCENTRICITY":"0.00011140","PERIAPSIS":"546.430","OBJECT_NAME":"STARLINK-1027","TLE_LINE1":"1 44732U 19074V   23033.65790076  .00000364  00000-0  43346-4 0  9999","DECAY_DATE":null,"MEAN_ANOMALY":"261.3646","CLASSIFICATION_TYPE":"U","MEAN_MOTION_DOT":"0.00000364","OBJECT_TYPE":"PAYLOAD","SITE":"AFETR","FILE":"3768711","MEAN_MOTION_DDOT":"0.0000000000000","REF_FRAME":"TEME","COUNTRY_CODE":"US","CENTER_NAME":"EARTH","TIME_SYSTEM":"UTC","RCS_SIZE":"LARGE","INCLINATION":"53.0496"},{"INCLINATION":"53.0533","TIME_SYSTEM":"UTC","CENTER_NAME":"EARTH","RCS_SIZE":"LARGE","MEAN_MOTION_DDOT":"0.0000000000000","REF_FRAME":"TEME","COUNTRY_CODE":"US","SITE":"AFETR","FILE":"3768366","MEAN_MOTION_DOT":"0.00000581","OBJECT_TYPE":"PAYLOAD","OBJECT_NAME":"STARLINK-1028","DECAY_DATE":null,"TLE_LINE1":"1 44733U 19074W   23033.52335907  .00000581  00000-0  57926-4 0  9994","MEAN_ANOMALY":"278.6495","CLASSIFICATION_TYPE":"U","ECCENTRICITY":"0.00012620","REV_AT_EPOCH":"17825","PERIAPSIS":"546.341","MEAN_ELEMENT_THEORY":"SGP4","EPOCH":"2023-02-02T12:33:38.223648","ARG_OF_PERICENTER":"81.4637","OBJECT_ID":"2019-074W","LAUNCH_DATE":"2019-11-11","RA_OF_ASC_NODE":"224.6148","SEMIMAJOR_AXIS":"6925.350","TLE_LINE2":"2 44733  53.0533 224.6148 0001262  81.4637 278.6495 15.06399622178256","ELEMENT_SET_NO":"999","PERIOD":"95.592","MEAN_MOTION":"15.06399622","APOAPSIS":"548.089","EPHEMERIS_TYPE":"0","NORAD_CAT_ID":"44733","BSTAR":"0.00005792600000","GP_ID":"224237332"},{"ELEMENT_SET_NO":"999","PERIOD":"95.593","EPHEMERIS_TYPE":"0","APOAPSIS":"548.195","MEAN_MOTION":"15.06393075","NORAD_CAT_ID":"44734","BSTAR":"-0.00003742700000","GP_ID":"224238572","EPOCH":"2023-02-02T12:54:52.449120","ARG_OF_PERICENTER":"107.8523","OBJECT_ID":"2019-074X","LAUNCH_DATE":"2019-11-11","RA_OF_ASC_NODE":"144.5575","TLE_LINE2":"2 44734  53.0557 144.5575 0001387 107.8523 252.2617 15.06393075179354","SEMIMAJOR_AXIS":"6925.370","OBJECT_TYPE":"PAYLOAD","MEAN_MOTION_DOT":"-0.00000839","TLE_LINE1":"1 44734U 19074X   23033.53810705 -.00000839  00000-0 -37427-4 0  9992","MEAN_ANOMALY":"252.2617","DECAY_DATE":null,"OBJECT_NAME":"STARLINK-1029","CLASSIFICATION_TYPE":"U","PERIAPSIS":"546.274","ECCENTRICITY":"0.00013870","REV_AT_EPOCH":"17935","MEAN_ELEMENT_THEORY":"SGP4","INCLINATION":"53.0557","TIME_SYSTEM":"UTC","CENTER_NAME":"EARTH","RCS_SIZE":"LARGE","COUNTRY_CODE":"US","REF_FRAME":"TEME","MEAN_MOTION_DDOT":"0.0000000000000","SITE":"AFETR","FILE":"3768366"}];
